ONEWEB-0063             
1 45448U 20020AA  24059.60424296 -.00000344  00000+0 -10058-2 0  9990
2 45448  87.9022 187.9717 0001904 116.5622 243.5701 13.11417315192654
ONEWEB-0019             
1 45449U 20020AB  24059.57827343  .00000533  00000+0  14692-2 0  9993
2 45449  87.9024 187.9751 0001557 108.7629 251.3668 13.11415747192497
ONEWEB-0094             
1 45450U 20020AC  24059.91667824 -.00045051  00000+0 -11660+0 0  9994
2 45450  87.9262 172.7774 0001864 105.5345  55.6699 13.17671104195782
ONEWEB-0087             
1 45451U 20020AD  24059.61072999 -.00000501  00000+0 -14501-2 0  9996
2 45451  87.9016 187.9477 0002001 101.9824 258.1529 13.11415220192546
ONEWEB-0082             
1 45452U 20020AE  24059.61234893 -.00000694  00000+0 -19953-2 0  9999
2 45452  87.9023 187.9466 0001652 103.9888 256.1424 13.11416421192632
ONEWEB-0050             
1 45453U 20020AF  24059.52776981  .00001782  00000+0  18779-3 0  9992
2 45453  87.9967  55.8930 0026084  97.6410 262.7781 14.88538162215306
ONEWEB-0034             
1 45454U 20020AG  24059.63185218  .00000101  00000+0  24886-3 0  9992
2 45454  87.9023 187.9605 0001766 104.4306 255.7017 13.11419977192559
ONEWEB-0060             
1 45455U 20020AH  24059.41106347  .00000457  00000+0  12536-2 0  9997
2 45455  87.9026 188.0006 0001855 105.8079 254.3253 13.11419778192489
